{
  "norad_id": 59120,
  "name": "TIGER-8",
  "history": [
    {
      "epoch": "2026-03-28T15:47:57.151104Z",
      "apogee_km": 443.0823407960197,
      "perigee_km": 430.76207675839214,
      "latitude_deg": 2.87648747060907e-05,
      "longitude_deg": 170.19398033761166,
      "height_km": 444.0312756186453,
      "semi_major_axis_km": 6815.059208777206,
      "eccentricity": 0.0009039,
      "inclination_deg": 97.5423,
      "raan_deg": 233.2577,
      "arg_perigee_deg": 130.5398,
      "mean_anomaly_deg": 229.6638,
      "mean_motion_rev_day": 15.43115068
    },
    {
      "epoch": "2026-03-28T23:34:50.585088Z",
      "apogee_km": 443.0633525864714,
      "perigee_km": 430.7240579914742,
      "latitude_deg": -8.97600763407215e-06,
      "longitude_deg": 53.48756834345882,
      "height_km": 443.9224214852224,
      "semi_major_axis_km": 6815.030705288972,
      "eccentricity": 0.0009053,
      "inclination_deg": 97.5424,
      "raan_deg": 233.5935,
      "arg_perigee_deg": 129.4939,
      "mean_anomaly_deg": 230.711,
      "mean_motion_rev_day": 15.43124749
    },
    {
      "epoch": "2026-03-30T03:35:37.413312Z",
      "apogee_km": 443.00969558485485,
      "perigee_km": 430.56155791483434,
      "latitude_deg": -7.785794794238757e-05,
      "longitude_deg": -6.64919286488544,
      "height_km": 443.51802137012703,
      "semi_major_axis_km": 6814.922626749844,
      "eccentricity": 0.0009133,
      "inclination_deg": 97.5424,
      "raan_deg": 234.8023,
      "arg_perigee_deg": 125.6617,
      "mean_anomaly_deg": 234.5481,
      "mean_motion_rev_day": 15.43161458
    },
    {
      "epoch": "2026-03-30T08:15:44.977248Z",
      "apogee_km": 442.97696901200834,
      "perigee_km": 430.55340232753224,
      "latitude_deg": 6.756623661028074e-05,
      "longitude_deg": -76.67096766708694,
      "height_km": 443.43805358317934,
      "semi_major_axis_km": 6814.90218566977,
      "eccentricity": 0.0009115,
      "inclination_deg": 97.5426,
      "raan_deg": 235.0038,
      "arg_perigee_deg": 125.071,
      "mean_anomaly_deg": 235.1394,
      "mean_motion_rev_day": 15.43168401
    },
    {
      "epoch": "2026-03-30T20:42:44.818272Z",
      "apogee_km": 442.928425880089,
      "perigee_km": 430.4999092117896,
      "latitude_deg": -3.357301416106107e-05,
      "longitude_deg": 96.6056071317938,
      "height_km": 443.2422437195941,
      "semi_major_axis_km": 6814.8511675459395,
      "eccentricity": 0.00091187,
      "inclination_deg": 97.5426,
      "raan_deg": 235.541,
      "arg_perigee_deg": 123.4439,
      "mean_anomaly_deg": 236.7681,
      "mean_motion_rev_day": 15.4318573
    },
    {
      "epoch": "2026-03-31T20:03:20.860704Z",
      "apogee_km": 442.86304443176505,
      "perigee_km": 430.4056424159862,
      "latitude_deg": -4.1194503387478876e-05,
      "longitude_deg": 106.50415554814892,
      "height_km": 442.87147921089985,
      "semi_major_axis_km": 6814.771343423875,
      "eccentricity": 0.000914,
      "inclination_deg": 97.543,
      "raan_deg": 236.5484,
      "arg_perigee_deg": 120.2157,
      "mean_anomaly_deg": 239.9996,
      "mean_motion_rev_day": 15.43212844
    },
    {
      "epoch": "2026-04-01T16:17:10.836960Z",
      "apogee_km": 442.7715448267081,
      "perigee_km": 430.35107568643434,
      "latitude_deg": 2.268448234888829e-05,
      "longitude_deg": 163.08827468062327,
      "height_km": 442.5051529347412,
      "semi_major_axis_km": 6814.698310256571,
      "eccentricity": 0.0009113,
      "inclination_deg": 97.5433,
      "raan_deg": 237.4216,
      "arg_perigee_deg": 117.2336,
      "mean_anomaly_deg": 242.9841,
      "mean_motion_rev_day": 15.43237652
    },
    {
      "epoch": "2026-04-02T20:17:50.295264Z",
      "apogee_km": 442.6504850818246,
      "perigee_km": 430.21934299623354,
      "latitude_deg": 2.7044140752725888e-05,
      "longitude_deg": 102.98209621607899,
      "height_km": 442.0813497009107,
      "semi_major_axis_km": 6814.571914039028,
      "eccentricity": 0.0009121,
      "inclination_deg": 97.544,
      "raan_deg": 238.6302,
      "arg_perigee_deg": 114.1718,
      "mean_anomaly_deg": 246.0484,
      "mean_motion_rev_day": 15.43280588
    },
    {
      "epoch": "2026-04-02T20:17:50.296128Z",
      "apogee_km": 442.6503487903856,
      "perigee_km": 430.2194792876717,
      "latitude_deg": 2.9154578656643895e-05,
      "longitude_deg": 102.98209232828498,
      "height_km": 442.08129387459536,
      "semi_major_axis_km": 6814.571914039028,
      "eccentricity": 0.00091208,
      "inclination_deg": 97.544,
      "raan_deg": 238.6302,
      "arg_perigee_deg": 114.1718,
      "mean_anomaly_deg": 246.0484,
      "mean_motion_rev_day": 15.43280588
    },
    {
      "epoch": "2026-04-03T19:38:20.952384Z",
      "apogee_km": 442.55571560091994,
      "perigee_km": 430.0988748692298,
      "latitude_deg": -1.590905487901873e-06,
      "longitude_deg": 112.90324634978542,
      "height_km": 441.6737090132182,
      "semi_major_axis_km": 6814.464295235074,
      "eccentricity": 0.000914,
      "inclination_deg": 97.5443,
      "raan_deg": 239.6377,
      "arg_perigee_deg": 111.1339,
      "mean_anomaly_deg": 249.0886,
      "mean_motion_rev_day": 15.43317147
    },
    {
      "epoch": "2026-04-04T20:32:11.432832Z",
      "apogee_km": 442.4554199292079,
      "perigee_km": 430.0055705154364,
      "latitude_deg": 4.6047828587322596e-05,
      "longitude_deg": 99.49510598335033,
      "height_km": 441.2547136971884,
      "semi_major_axis_km": 6814.367495222322,
      "eccentricity": 0.0009135,
      "inclination_deg": 97.5448,
      "raan_deg": 240.7124,
      "arg_perigee_deg": 108.0032,
      "mean_anomaly_deg": 252.2212,
      "mean_motion_rev_day": 15.43350032
    },
    {
      "epoch": "2026-04-05T08:59:05.972352Z",
      "apogee_km": 442.40496308276124,
      "perigee_km": 429.9573843611861,
      "latitude_deg": 6.406099180220511e-05,
      "longitude_deg": -87.20588623610779,
      "height_km": 441.0305930257447,
      "semi_major_axis_km": 6814.318173721973,
      "eccentricity": 0.00091334,
      "inclination_deg": 97.5451,
      "raan_deg": 241.2499,
      "arg_perigee_deg": 106.3246,
      "mean_anomaly_deg": 253.9007,
      "mean_motion_rev_day": 15.43366788
    },
    {
      "epoch": "2026-04-05T22:59:21.900768Z",
      "apogee_km": 442.38145785326105,
      "perigee_km": 429.8963415498283,
      "latitude_deg": 7.710685058417714e-05,
      "longitude_deg": 62.75720132033032,
      "height_km": 440.8014266273417,
      "semi_major_axis_km": 6814.275899701544,
      "eccentricity": 0.0009161,
      "inclination_deg": 97.5452,
      "raan_deg": 241.8545,
      "arg_perigee_deg": 104.4979,
      "mean_anomaly_deg": 255.7286,
      "mean_motion_rev_day": 15.4338115
    },
    {
      "epoch": "2026-04-07T02:59:52.221408Z",
      "apogee_km": 442.2915760537435,
      "perigee_km": 429.80961977938387,
      "latitude_deg": -2.1385790111367045e-05,
      "longitude_deg": 2.6898103357519703,
      "height_km": 440.3341273835469,
      "semi_major_axis_km": 6814.187597916563,
      "eccentricity": 0.00091588,
      "inclination_deg": 97.5454,
      "raan_deg": 243.0637,
      "arg_perigee_deg": 100.9375,
      "mean_anomaly_deg": 259.2903,
      "mean_motion_rev_day": 15.4341115
    },
    {
      "epoch": "2026-04-08T08:33:42.309216Z",
      "apogee_km": 442.2088029191218,
      "perigee_km": 429.7382991996283,
      "latitude_deg": 6.186187508417588e-05,
      "longitude_deg": -80.70665027281012,
      "height_km": 439.831944564255,
      "semi_major_axis_km": 6814.110551059375,
      "eccentricity": 0.00091505,
      "inclination_deg": 97.5453,
      "raan_deg": 244.3401,
      "arg_perigee_deg": 96.9949,
      "mean_anomaly_deg": 263.234,
      "mean_motion_rev_day": 15.43437327
    },
    {
      "epoch": "2026-04-09T20:20:56.245344Z",
      "apogee_km": 442.0855608041611,
      "perigee_km": 429.67587173928587,
      "latitude_deg": 9.372110573526077e-06,
      "longitude_deg": 102.56105672515424,
      "height_km": 439.2531600719768,
      "semi_major_axis_km": 6814.017716271723,
      "eccentricity": 0.0009106,
      "inclination_deg": 97.5452,
      "raan_deg": 245.8856,
      "arg_perigee_deg": 92.5261,
      "mean_anomaly_deg": 267.7029,
      "mean_motion_rev_day": 15.43468869
    },
    {
      "epoch": "2026-04-09T23:27:39.081024Z",
      "apogee_km": 442.07527221874534,
      "perigee_km": 429.6703673418351,
      "latitude_deg": 2.2909764887572304e-05,
      "longitude_deg": 55.88917142233282,
      "height_km": 439.20454807419605,
      "semi_major_axis_km": 6814.00981978029,
      "eccentricity": 0.00091025,
      "inclination_deg": 97.5452,
      "raan_deg": 246.02,
      "arg_perigee_deg": 92.1507,
      "mean_anomaly_deg": 268.0783,
      "mean_motion_rev_day": 15.43471552
    },
    {
      "epoch": "2026-04-11T09:41:28.895424Z",
      "apogee_km": 441.9750876728176,
      "perigee_km": 429.60508444079096,
      "latitude_deg": 2.5296263097084574e-05,
      "longitude_deg": -97.49598881778834,
      "height_km": 438.66531949721207,
      "semi_major_axis_km": 6813.927086056804,
      "eccentricity": 0.0009077,
      "inclination_deg": 97.545,
      "raan_deg": 247.4982,
      "arg_perigee_deg": 87.9269,
      "mean_anomaly_deg": 272.3018,
      "mean_motion_rev_day": 15.43499663
    },
    {
      "epoch": "2026-04-12T23:01:59.227392Z",
      "apogee_km": 441.9039423942786,
      "perigee_km": 429.539514345779,
      "latitude_deg": -4.235849433093366e-05,
      "longitude_deg": 62.456863931825694,
      "height_km": 438.0861840745356,
      "semi_major_axis_km": 6813.858728370029,
      "eccentricity": 0.0009073,
      "inclination_deg": 97.5449,
      "raan_deg": 249.111,
      "arg_perigee_deg": 83.1755,
      "mean_anomaly_deg": 277.0524,
      "mean_motion_rev_day": 15.4352289
    },
    {
      "epoch": "2026-04-14T15:29:10.040640Z",
      "apogee_km": 441.7997228609811,
      "perigee_km": 429.52125978161985,
      "latitude_deg": 1.6065156955522133e-05,
      "longitude_deg": 175.74775675099025,
      "height_km": 437.48409357078623,
      "semi_major_axis_km": 6813.7974913213,
      "eccentricity": 0.000901,
      "inclination_deg": 97.5454,
      "raan_deg": 250.8583,
      "arg_perigee_deg": 78.0051,
      "mean_anomaly_deg": 282.2206,
      "mean_motion_rev_day": 15.43543698
    },
    {
      "epoch": "2026-04-15T16:22:48.062208Z",
      "apogee_km": 441.7395009874108,
      "perigee_km": 429.50743819240233,
      "latitude_deg": 4.846859832187892e-05,
      "longitude_deg": 162.3921752491525,
      "height_km": 437.12243739167246,
      "semi_major_axis_km": 6813.760469589906,
      "eccentricity": 0.0008976,
      "inclination_deg": 97.5457,
      "raan_deg": 251.9335,
      "arg_perigee_deg": 74.8263,
      "mean_anomaly_deg": 285.3977,
      "mean_motion_rev_day": 15.43556278
    },
    {
      "epoch": "2026-04-16T15:43:04.319040Z",
      "apogee_km": 441.6762844058021,
      "perigee_km": 429.4987959076334,
      "latitude_deg": -6.751420003298634e-05,
      "longitude_deg": 172.37390419528776,
      "height_km": 436.7899305471318,
      "semi_major_axis_km": 6813.724540156718,
      "eccentricity": 0.0008936,
      "inclination_deg": 97.546,
      "raan_deg": 252.9414,
      "arg_perigee_deg": 71.8384,
      "mean_anomaly_deg": 288.3835,
      "mean_motion_rev_day": 15.43568487
    }
  ]
}